{
  "type": "FeatureCollection",
  "features": [
    {
      "type": "Feature",
      "properties": {
        "norad_id": 37846,
        "name": "GSAT0101 (GALILEO-PFM)",
        "group": "galileo",
        "lat": 43.8268705751838,
        "lon": 128.07043106272047,
        "alt_km": 23225.860146069645,
        "timestamp": "2025-12-21T07:34:34.780877+00:00",
        "meta_object_name": "GSAT0101 (GALILEO-PFM)",
        "meta_object_id": "2011-060A",
        "meta_epoch": "2025-12-18T18:24:05.988672",
        "meta_mean_motion": 1.70475824,
        "meta_eccentricity": 0.000318,
        "meta_inclination": 57.0514,
        "meta_ra_of_asc_node": 346.6564,
        "meta_arg_of_pericenter": 319.1021,
        "meta_mean_anomaly": 40.8874,
        "meta_ephemeris_type": 0,
        "meta_classification_type": "U",
        "meta_norad_cat_id": 37846,
        "meta_element_set_no": 999,
        "meta_rev_at_epoch": 8804,
        "meta_bstar": 0,
        "meta_mean_motion_dot": -7.5e-07,
        "meta_mean_motion_ddot": 0,
        "tle_line1": "1 37846U 11060A   25352.76673598 -.00000075  00000+0  00000+0 0  9995",
        "tle_line2": "2 37846  57.0514 346.6564 0003180 319.1021  40.8874  1.70475824 88044"
      },
      "geometry": {
        "type": "Point",
        "coordinates": [
          128.07043106272047,
          43.8268705751838
        ]
      }
    },
    {
      "type": "Feature",
      "properties": {
        "norad_id": 37847,
        "name": "GSAT0102 (GALILEO-FM2)",
        "group": "galileo",
        "lat": 8.536700016160195,
        "lon": 160.99040888236854,
        "alt_km": 23233.047058329113,
        "timestamp": "2025-12-21T07:34:34.780897+00:00",
        "meta_object_name": "GSAT0102 (GALILEO-FM2)",
        "meta_object_id": "2011-060B",
        "meta_epoch": "2025-12-18T09:18:10.933920",
        "meta_mean_motion": 1.7047603,
        "meta_eccentricity": 0.0005099,
        "meta_inclination": 57.0522,
        "meta_ra_of_asc_node": 346.6671,
        "meta_arg_of_pericenter": 311.9548,
        "meta_mean_anomaly": 220.8374,
        "meta_ephemeris_type": 0,
        "meta_classification_type": "U",
        "meta_norad_cat_id": 37847,
        "meta_element_set_no": 999,
        "meta_rev_at_epoch": 8804,
        "meta_bstar": 0,
        "meta_mean_motion_dot": -7.6e-07,
        "meta_mean_motion_ddot": 0,
        "tle_line1": "1 37847U 11060B   25352.38762655 -.00000076  00000+0  00000+0 0  9998",
        "tle_line2": "2 37847  57.0522 346.6671 0005099 311.9548 220.8374  1.70476030 88043"
      },
      "geometry": {
        "type": "Point",
        "coordinates": [
          160.99040888236854,
          8.536700016160195
        ]
      }
    },
    {
      "type": "Feature",
      "properties": {
        "norad_id": 38857,
        "name": "GSAT0103 (GALILEO-FM3)",
        "group": "galileo",
        "lat": 54.53647150121666,
        "lon": -146.70569224599623,
        "alt_km": 23224.24283003714,
        "timestamp": "2025-12-21T07:34:34.780909+00:00",
        "meta_object_name": "GSAT0103 (GALILEO-FM3)",
        "meta_object_id": "2012-055A",
        "meta_epoch": "2025-12-18T05:17:11.481792",
        "meta_mean_motion": 1.70473412,
        "meta_eccentricity": 0.00028558,
        "meta_inclination": 55.6954,
        "meta_ra_of_asc_node": 106.5161,
        "meta_arg_of_pericenter": 269.0808,
        "meta_mean_anomaly": 90.8455,
        "meta_ephemeris_type": 0,
        "meta_classification_type": "U",
        "meta_norad_cat_id": 38857,
        "meta_element_set_no": 999,
        "meta_rev_at_epoch": 8192,
        "meta_bstar": 0,
        "meta_mean_motion_dot": -7e-08,
        "meta_mean_motion_ddot": 0,
        "tle_line1": "1 38857U 12055A   25352.22027178 -.00000007  00000+0  00000+0 0  9996",
        "tle_line2": "2 38857  55.6954 106.5161 0002855 269.0808  90.8455  1.70473412 81920"
      },
      "geometry": {
        "type": "Point",
        "coordinates": [
          -146.70569224599623,
          54.53647150121666
        ]
      }
    },
    {
      "type": "Feature",
      "properties": {
        "norad_id": 40128,
        "name": "GSAT0201 (GALILEO 5)",
        "group": "galileo",
        "lat": -27.412051385241014,
        "lon": 127.40385225023108,
        "alt_km": 17990.271148573906,
        "timestamp": "2025-12-21T07:34:34.780920+00:00",
        "meta_object_name": "GSAT0201 (GALILEO 5)",
        "meta_object_id": "2014-050A",
        "meta_epoch": "2025-12-18T20:33:33.240672",
        "meta_mean_motion": 1.85519721,
        "meta_eccentricity": 0.1648519,
        "meta_inclination": 49.0697,
        "meta_ra_of_asc_node": 280.8143,
        "meta_arg_of_pericenter": 172.5106,
        "meta_mean_anomaly": 190.3447,
        "meta_ephemeris_type": 0,
        "meta_classification_type": "U",
        "meta_norad_cat_id": 40128,
        "meta_element_set_no": 999,
        "meta_rev_at_epoch": 7497,
        "meta_bstar": 0,
        "meta_mean_motion_dot": -5.8e-07,
        "meta_mean_motion_ddot": 0,
        "tle_line1": "1 40128U 14050A   25352.85663473 -.00000058  00000+0  00000+0 0  9996",
        "tle_line2": "2 40128  49.0697 280.8143 1648519 172.5106 190.3447  1.85519721 74978"
      },
      "geometry": {
        "type": "Point",
        "coordinates": [
          127.40385225023108,
          -27.412051385241014
        ]
      }
    },
    {
      "type": "Feature",
      "properties": {
        "norad_id": 40129,
        "name": "GSAT0202 (GALILEO 6)",
        "group": "galileo",
        "lat": 17.367686600914553,
        "lon": -64.49942760282102,
        "alt_km": 25380.12182853487,
        "timestamp": "2025-12-21T07:34:34.780931+00:00",
        "meta_object_name": "GSAT0202 (GALILEO 6)",
        "meta_object_id": "2014-050B",
        "meta_epoch": "2025-12-18T13:46:22.484640",
        "meta_mean_motion": 1.85520466,
        "meta_eccentricity": 0.16491259,
        "meta_inclination": 49.0858,
        "meta_ra_of_asc_node": 279.9095,
        "meta_arg_of_pericenter": 173.2442,
        "meta_mean_anomaly": 189.3393,
        "meta_ephemeris_type": 0,
        "meta_classification_type": "U",
        "meta_norad_cat_id": 40129,
        "meta_element_set_no": 999,
        "meta_rev_at_epoch": 7713,
        "meta_bstar": 0,
        "meta_mean_motion_dot": -5.9e-07,
        "meta_mean_motion_ddot": 0,
        "tle_line1": "1 40129U 14050B   25352.57387135 -.00000059  00000+0  00000+0 0  9995",
        "tle_line2": "2 40129  49.0858 279.9095 1649125 173.2442 189.3393  1.85520466 77135"
      },
      "geometry": {
        "type": "Point",
        "coordinates": [
          -64.49942760282102,
          17.367686600914553
        ]
      }
    },
    {
      "type": "Feature",
      "properties": {
        "norad_id": 40544,
        "name": "GSAT0203 (GALILEO 7)",
        "group": "galileo",
        "lat": -55.636498474135834,
        "lon": -120.60226470755596,
        "alt_km": 23209.27023820609,
        "timestamp": "2025-12-21T07:34:34.780942+00:00",
        "meta_object_name": "GSAT0203 (GALILEO 7)",
        "meta_object_id": "2015-017A",
        "meta_epoch": "2025-12-20T07:18:34.773696",
        "meta_mean_motion": 1.70475998,
        "meta_eccentricity": 0.00064692,
        "meta_inclination": 56.8445,
        "meta_ra_of_asc_node": 346.4738,
        "meta_arg_of_pericenter": 274.1452,
        "meta_mean_anomaly": 85.7909,
        "meta_ephemeris_type": 0,
        "meta_classification_type": "U",
        "meta_norad_cat_id": 40544,
        "meta_element_set_no": 999,
        "meta_rev_at_epoch": 6615,
        "meta_bstar": 0,
        "meta_mean_motion_dot": -7.1e-07,
        "meta_mean_motion_ddot": 0,
        "tle_line1": "1 40544U 15017A   25354.30456914 -.00000071  00000+0  00000+0 0  9999",
        "tle_line2": "2 40544  56.8445 346.4738 0006469 274.1452  85.7909  1.70475998 66152"
      },
      "geometry": {
        "type": "Point",
        "coordinates": [
          -120.60226470755596,
          -55.636498474135834
        ]
      }
    },
    {
      "type": "Feature",
      "properties": {
        "norad_id": 40545,
        "name": "GSAT0204 (GALILEO 8)",
        "group": "galileo",
        "lat": 54.421243455241616,
        "lon": 100.4436590016785,
        "alt_km": 23233.117820079326,
        "timestamp": "2025-12-21T07:34:34.780952+00:00",
        "meta_object_name": "GSAT0204 (GALILEO 8)",
        "meta_object_id": "2015-017B",
        "meta_epoch": "2025-12-20T13:26:28.826304",
        "meta_mean_motion": 1.70475697,
        "meta_eccentricity": 0.0006133,
        "meta_inclination": 56.8522,
        "meta_ra_of_asc_node": 346.4847,
        "meta_arg_of_pericenter": 266.5447,
        "meta_mean_anomaly": 93.3948,
        "meta_ephemeris_type": 0,
        "meta_classification_type": "U",
        "meta_norad_cat_id": 40545,
        "meta_element_set_no": 999,
        "meta_rev_at_epoch": 2920,
        "meta_bstar": 0,
        "meta_mean_motion_dot": -7e-07,
        "meta_mean_motion_ddot": 0,
        "tle_line1": "1 40545U 15017B   25354.56005586 -.00000070  00000+0  00000+0 0  9992",
        "tle_line2": "2 40545  56.8522 346.4847 0006133 266.5447  93.3948  1.70475697 29206"
      },
      "geometry": {
        "type": "Point",
        "coordinates": [
          100.4436590016785,
          54.421243455241616
        ]
      }
    }
  ]
}